*******************************************************************************
Ephemeris / WWW_USER Mon Mar 10 07:04:26 2025 Pasadena, USA      / Horizons    
*******************************************************************************
Target body name: (2019 AK3)                      {source: JPL#8}
Center body name: Earth (399)                     {source: DE441}
Center-site name: Mauna Kea
*******************************************************************************
Start time      : A.D. 2018-Nov-30 03:51:00.0000 UT      
Stop  time      : A.D. 2018-Nov-30 16:29:00.0000 UT      
Step-size       : 1 minutes
*******************************************************************************
Target pole/equ : undefined
Target radii    : undefined                                                    
Center geodetic : 204.5278, 19.8260847, 4.21024   {E-lon(deg),Lat(deg),Alt(km)}
Center cylindric: 204.5278, 6006.35451, 2151.0229 {E-lon(deg),Dxy(km),Dz(km)}
Center pole/equ : ITRF93                          {East-longitude positive}
Center radii    : 6378.137, 6378.137, 6356.752 km {Equator_a, b, pole_c}       
Target primary  : Sun
Vis. interferer : MOON (R_eq= 1737.400) km        {source: DE441}
Rel. light bend : Sun                             {source: DE441}
Rel. lght bnd GM: 1.3271E+11 km^3/s^2                                          
Small-body perts: Yes                             {source: SB441-N16}
Atmos refraction: NO (AIRLESS)
RA format       : HMS
Time format     : CAL 
Calendar mode   : Mixed Julian/Gregorian
RTS-only print  : NO       
EOP file        : eop.250307.p250603                                           
EOP coverage    : DATA-BASED 1962-JAN-20 TO 2025-MAR-07. PREDICTS-> 2025-JUN-02
Units conversion: 1 au= 149597870.700 km, c= 299792.458 km/s, 1 day= 86400.0 s 
Table cut-offs 1: Elevation (-90.0deg=NO ),Airmass (>38.000=NO), Daylight (YES)
Table cut-offs 2: Solar elongation (  0.0,180.0=NO ),Local Hour Angle( 0.0=NO )
Table cut-offs 3: RA/DEC angular rate (     0.0=NO )                           
*******************************************************************************
Initial IAU76/J2000 heliocentric ecliptic osculating elements (au, days, deg.):
  EPOCH=  2458490.5 ! 2019-Jan-07.00 (TDB)         Residual RMS= .10027        
   EC= .4460441123274964   QR= .8736665173848456   TP= 2458534.5649506859      
   OM= 293.7231565418804   W=  230.0622942544228   IN= 4.899135051513321       
  Equivalent ICRF heliocentric cartesian coordinates (au, au/d):
   X=-2.869453413579581E-01  Y= 8.924440573967301E-01  Z= 3.991223626471717E-01
  VX=-1.652766681412374E-02 VY=-9.271695064707189E-03 VZ=-5.840432387800149E-03
Asteroid physical parameters (km, seconds, rotational period in hours):        
   GM= n.a.                RAD= n.a.               ROTPER= n.a.                
   H= 27.                  G= .150                 B-V= n.a.                   
                           ALBEDO= n.a.            STYP= n.a.                  
*******************************************************************************
 Date__(UT)__HR:MN     R.A._________(ICRF)_________DEC
******************************************************
$$SOE
 2018-Nov-30 05:54     06 19 51.155750 +36 23 33.21124
 2018-Nov-30 05:55     06 19 51.194203 +36 23 33.54863
 2018-Nov-30 05:56     06 19 51.232613 +36 23 33.88603
 2018-Nov-30 05:57     06 19 51.270980 +36 23 34.22345
 2018-Nov-30 05:58     06 19 51.309305 +36 23 34.56089
 2018-Nov-30 05:59     06 19 51.347586 +36 23 34.89834
 2018-Nov-30 06:00     06 19 51.385825 +36 23 35.23581
 2018-Nov-30 06:01     06 19 51.424021 +36 23 35.57328
 2018-Nov-30 06:02     06 19 51.462173 +36 23 35.91077
 2018-Nov-30 06:03     06 19 51.500283 +36 23 36.24826
 2018-Nov-30 06:04     06 19 51.538350 +36 23 36.58576
 2018-Nov-30 06:05     06 19 51.576374 +36 23 36.92327
 2018-Nov-30 06:06     06 19 51.614355 +36 23 37.26078
 2018-Nov-30 06:07     06 19 51.652293 +36 23 37.59829
 2018-Nov-30 06:08     06 19 51.690189 +36 23 37.93581
 2018-Nov-30 06:09     06 19 51.728041 +36 23 38.27333
 2018-Nov-30 06:10     06 19 51.765850 +36 23 38.61084
 2018-Nov-30 06:11     06 19 51.803616 +36 23 38.94835
 2018-Nov-30 06:12     06 19 51.841340 +36 23 39.28586
 2018-Nov-30 06:13     06 19 51.879020 +36 23 39.62337
 2018-Nov-30 06:14     06 19 51.916658 +36 23 39.96087
 2018-Nov-30 06:15     06 19 51.954252 +36 23 40.29836
 2018-Nov-30 06:16     06 19 51.991804 +36 23 40.63584
 2018-Nov-30 06:17     06 19 52.029312 +36 23 40.97331
 2018-Nov-30 06:18     06 19 52.066778 +36 23 41.31077
 2018-Nov-30 06:19     06 19 52.104201 +36 23 41.64822
 2018-Nov-30 06:20     06 19 52.141581 +36 23 41.98565
 2018-Nov-30 06:21     06 19 52.178918 +36 23 42.32307
 2018-Nov-30 06:22     06 19 52.216212 +36 23 42.66047
 2018-Nov-30 06:23     06 19 52.253463 +36 23 42.99785
 2018-Nov-30 06:24     06 19 52.290671 +36 23 43.33522
 2018-Nov-30 06:25     06 19 52.327837 +36 23 43.67256
 2018-Nov-30 06:26     06 19 52.364959 +36 23 44.00988
 2018-Nov-30 06:27     06 19 52.402039 +36 23 44.34717
 2018-Nov-30 06:28     06 19 52.439076 +36 23 44.68445
 2018-Nov-30 06:29     06 19 52.476070 +36 23 45.02169
 2018-Nov-30 06:30     06 19 52.513022 +36 23 45.35891
 2018-Nov-30 06:31     06 19 52.549930 +36 23 45.69610
 2018-Nov-30 06:32     06 19 52.586796 +36 23 46.03326
 2018-Nov-30 06:33     06 19 52.623619 +36 23 46.37039
 2018-Nov-30 06:34     06 19 52.660399 +36 23 46.70748
 2018-Nov-30 06:35     06 19 52.697137 +36 23 47.04454
 2018-Nov-30 06:36     06 19 52.733832 +36 23 47.38157
 2018-Nov-30 06:37     06 19 52.770484 +36 23 47.71855
 2018-Nov-30 06:38     06 19 52.807093 +36 23 48.05550
 2018-Nov-30 06:39     06 19 52.843660 +36 23 48.39241
 2018-Nov-30 06:40     06 19 52.880185 +36 23 48.72928
 2018-Nov-30 06:41     06 19 52.916666 +36 23 49.06611
 2018-Nov-30 06:42     06 19 52.953106 +36 23 49.40290
 2018-Nov-30 06:43     06 19 52.989502 +36 23 49.73964
 2018-Nov-30 06:44     06 19 53.025856 +36 23 50.07633
 2018-Nov-30 06:45     06 19 53.062168 +36 23 50.41298
 2018-Nov-30 06:46     06 19 53.098437 +36 23 50.74957
 2018-Nov-30 06:47     06 19 53.134664 +36 23 51.08612
 2018-Nov-30 06:48     06 19 53.170849 +36 23 51.42262
 2018-Nov-30 06:49     06 19 53.206991 +36 23 51.75906
 2018-Nov-30 06:50     06 19 53.243090 +36 23 52.09545
 2018-Nov-30 06:51     06 19 53.279148 +36 23 52.43179
 2018-Nov-30 06:52     06 19 53.315163 +36 23 52.76807
 2018-Nov-30 06:53     06 19 53.351136 +36 23 53.10429
 2018-Nov-30 06:54     06 19 53.387067 +36 23 53.44045
 2018-Nov-30 06:55     06 19 53.422955 +36 23 53.77655
 2018-Nov-30 06:56     06 19 53.458802 +36 23 54.11259
 2018-Nov-30 06:57     06 19 53.494606 +36 23 54.44856
 2018-Nov-30 06:58     06 19 53.530369 +36 23 54.78447
 2018-Nov-30 06:59     06 19 53.566089 +36 23 55.12032
 2018-Nov-30 07:00     06 19 53.601768 +36 23 55.45610
 2018-Nov-30 07:01     06 19 53.637404 +36 23 55.79181
 2018-Nov-30 07:02     06 19 53.672999 +36 23 56.12745
 2018-Nov-30 07:03     06 19 53.708551 +36 23 56.46302
 2018-Nov-30 07:04     06 19 53.744062 +36 23 56.79851
 2018-Nov-30 07:05     06 19 53.779531 +36 23 57.13394
 2018-Nov-30 07:06     06 19 53.814959 +36 23 57.46929
 2018-Nov-30 07:07     06 19 53.850345 +36 23 57.80456
 2018-Nov-30 07:08     06 19 53.885689 +36 23 58.13975
 2018-Nov-30 07:09     06 19 53.920992 +36 23 58.47487
 2018-Nov-30 07:10     06 19 53.956253 +36 23 58.80991
 2018-Nov-30 07:11     06 19 53.991472 +36 23 59.14486
 2018-Nov-30 07:12     06 19 54.026650 +36 23 59.47974
 2018-Nov-30 07:13     06 19 54.061787 +36 23 59.81453
 2018-Nov-30 07:14     06 19 54.096883 +36 24 00.14923
 2018-Nov-30 07:15     06 19 54.131937 +36 24 00.48385
 2018-Nov-30 07:16     06 19 54.166950 +36 24 00.81838
 2018-Nov-30 07:17     06 19 54.201921 +36 24 01.15282
 2018-Nov-30 07:18     06 19 54.236852 +36 24 01.48717
 2018-Nov-30 07:19     06 19 54.271742 +36 24 01.82143
 2018-Nov-30 07:20     06 19 54.306590 +36 24 02.15559
 2018-Nov-30 07:21     06 19 54.341398 +36 24 02.48967
 2018-Nov-30 07:22     06 19 54.376164 +36 24 02.82364
 2018-Nov-30 07:23     06 19 54.410890 +36 24 03.15752
 2018-Nov-30 07:24     06 19 54.445575 +36 24 03.49131
 2018-Nov-30 07:25     06 19 54.480220 +36 24 03.82499
 2018-Nov-30 07:26     06 19 54.514823 +36 24 04.15857
 2018-Nov-30 07:27     06 19 54.549386 +36 24 04.49205
 2018-Nov-30 07:28     06 19 54.583909 +36 24 04.82543
 2018-Nov-30 07:29     06 19 54.618391 +36 24 05.15871
 2018-Nov-30 07:30     06 19 54.652832 +36 24 05.49187
 2018-Nov-30 07:31     06 19 54.687234 +36 24 05.82494
 2018-Nov-30 07:32     06 19 54.721595 +36 24 06.15789
 2018-Nov-30 07:33     06 19 54.755915 +36 24 06.49074
 2018-Nov-30 07:34     06 19 54.790196 +36 24 06.82347
 2018-Nov-30 07:35     06 19 54.824436 +36 24 07.15609
 2018-Nov-30 07:36     06 19 54.858637 +36 24 07.48860
 2018-Nov-30 07:37     06 19 54.892797 +36 24 07.82100
 2018-Nov-30 07:38     06 19 54.926918 +36 24 08.15328
 2018-Nov-30 07:39     06 19 54.960999 +36 24 08.48544
 2018-Nov-30 07:40     06 19 54.995040 +36 24 08.81749
 2018-Nov-30 07:41     06 19 55.029041 +36 24 09.14941
 2018-Nov-30 07:42     06 19 55.063003 +36 24 09.48122
 2018-Nov-30 07:43     06 19 55.096925 +36 24 09.81290
 2018-Nov-30 07:44     06 19 55.130808 +36 24 10.14447
 2018-Nov-30 07:45     06 19 55.164651 +36 24 10.47590
 2018-Nov-30 07:46     06 19 55.198455 +36 24 10.80722
 2018-Nov-30 07:47     06 19 55.232220 +36 24 11.13840
 2018-Nov-30 07:48     06 19 55.265946 +36 24 11.46946
 2018-Nov-30 07:49     06 19 55.299632 +36 24 11.80039
 2018-Nov-30 07:50     06 19 55.333280 +36 24 12.13119
 2018-Nov-30 07:51     06 19 55.366888 +36 24 12.46186
 2018-Nov-30 07:52     06 19 55.400458 +36 24 12.79239
 2018-Nov-30 07:53     06 19 55.433989 +36 24 13.12279
 2018-Nov-30 07:54     06 19 55.467482 +36 24 13.45306
 2018-Nov-30 07:55     06 19 55.500935 +36 24 13.78319
 2018-Nov-30 07:56     06 19 55.534351 +36 24 14.11318
